{
"rows":[
	{
	  "ADDRESS": "3307 WEDGEWOOD PLAZA DR",
	  "CITY": "RIVIERA BEACH",
	  "STATE": "FL",
	  "ZIP": 33404
	},
	{
	  "ADDRESS": "1591 LANE AVE S APT 15W",
	  "CITY": "JACKSONVILLE",
	  "STATE": "FL",
	  "ZIP": 32210
	},
	{
	  "ADDRESS": "10501 BLAKEWOOD DR APT 1",
	  "CITY": "KNOXVILLE",
	  "STATE": "TN",
	  "ZIP": 37922
	},
	{
	  "ADDRESS": "5116 UNIVERSITY BLVD",
	  "CITY": "EIGHT MILE",
	  "STATE": "AL",
	  "ZIP": 36613
	},
	{
	  "ADDRESS": "2004 GAULT AVE S",
	  "CITY": "FORT PAYNE",
	  "STATE": "AL",
	  "ZIP": 35967
	},
	{
	  "ADDRESS": "841 CORVINA DR",
	  "CITY": "DAVENPORT",
	  "STATE": "FL",
	  "ZIP": 33897
	},
	{
	  "ADDRESS": "6105 HAMMER RD",
	  "CITY": "KNOXVILLE",
	  "STATE": "TN",
	  "ZIP": 37914
	},
	{
	  "ADDRESS": "PO BOX 92",
	  "CITY": "GREENSBORO",
	  "STATE": "GA",
	  "ZIP": 30642
	},
	{
	  "ADDRESS": "8300 N MIAMI AVE APT 110",
	  "CITY": "MIAMI",
	  "STATE": "FL",
	  "ZIP": 33150
	},
	{
	  "ADDRESS": "1657 VALEVIEW CT",
	  "CITY": "APOPKA",
	  "STATE": "FL",
	  "ZIP": 32712
	},
	{
	  "ADDRESS": "5405 DURHAM RIDGE CT NW",
	  "CITY": "LILBURN",
	  "STATE": "GA",
	  "ZIP": 30047
	},
	{
	  "ADDRESS": "9135 SPOTTSWOOD RD",
	  "CITY": "JACKSONVILLE",
	  "STATE": "FL",
	  "ZIP": 32208
	},
	{
	  "ADDRESS": "14695 NE 18TH AVE APT 2C",
	  "CITY": "NORTH MIAMI",
	  "STATE": "FL",
	  "ZIP": 33181
	},
	{
	  "ADDRESS": "2104 BAYWOOD BLVD SW",
	  "CITY": "AUSTELL",
	  "STATE": "GA",
	  "ZIP": 30106
	},
	{
	  "ADDRESS": "3460 FIRETHORN DR",
	  "CITY": "TUSCALOOSA",
	  "STATE": "AL",
	  "ZIP": 35405
	},
	{
	  "ADDRESS": "PO BOX 1144",
	  "CITY": "GREENVILLE",
	  "STATE": "GA",
	  "ZIP": 30222
	},
	{
	  "ADDRESS": "3795 ROCK SPRINGS RD",
	  "CITY": "JACKSONS GAP",
	  "STATE": "AL",
	  "ZIP": 36861
	},
	{
	  "ADDRESS": "423 FAIRLANE MDWS APT 111C",
	  "CITY": "EUFAULA",
	  "STATE": "AL",
	  "ZIP": 36027
	},
	{
	  "ADDRESS": "3001 NE 185TH ST APT 122",
	  "CITY": "MIAMI",
	  "STATE": "FL",
	  "ZIP": 33180
	},
	{
	  "ADDRESS": "PO BOX 226",
	  "CITY": "COMER",
	  "STATE": "GA",
	  "ZIP": 30629
	},
	{
	  "ADDRESS": "1470 NW 77 AVE",
	  "CITY": "TRENTON",
	  "STATE": "FL",
	  "ZIP": 32693
	},
	{
	  "ADDRESS": "545 77TH AVE N APT 305",
	  "CITY": "SAINT PETERSBURG",
	  "STATE": "FL",
	  "ZIP": 33702
	},
	{
	  "ADDRESS": "10216 LOLA ST",
	  "CITY": "TAMPA",
	  "STATE": "FL",
	  "ZIP": 33612
	},
	{
	  "ADDRESS": "938 GLENLOCK RD",
	  "CITY": "SWEETWATER",
	  "STATE": "TN",
	  "ZIP": 37874
	},
	{
	  "ADDRESS": "515 DULL ST",
	  "CITY": "DICKSON",
	  "STATE": "TN",
	  "ZIP": 37055
	},
	{
	  "ADDRESS": "1 GEICO CTR",
	  "CITY": "MACON",
	  "STATE": "GA",
	  "ZIP": 31296
	},
	{
	  "ADDRESS": "207 CROWN CIR",
	  "CITY": "BRUNSWICK",
	  "STATE": "GA",
	  "ZIP": 31525
	},
	{
	  "ADDRESS": "2581 COUNTY ROAD 28",
	  "CITY": "SAWYERVILLE",
	  "STATE": "AL",
	  "ZIP": 36776
	},
	{
	  "ADDRESS": "1950 NW 32ND ST APT 3",
	  "CITY": "MIAMI",
	  "STATE": "FL",
	  "ZIP": 33142
	},
	{
	  "ADDRESS": "639 AZALEA RD APT 49",
	  "CITY": "MOBILE",
	  "STATE": "AL",
	  "ZIP": 36609
	},
	{
	  "ADDRESS": "PO BOX 41103",
	  "CITY": "MOBILE",
	  "STATE": "AL",
	  "ZIP": 36640
	},
	{
	  "ADDRESS": "709 BENEDICT WAY",
	  "CITY": "CASSELBERRY",
	  "STATE": "FL",
	  "ZIP": 32707
	},
	{
	  "ADDRESS": "618 FAYETTEVILLE RD",
	  "CITY": "JONESBORO",
	  "STATE": "GA",
	  "ZIP": 30236
	},
	{
	  "ADDRESS": "9536 JEFF HAMILTON RD",
	  "CITY": "MOBILE",
	  "STATE": "AL",
	  "ZIP": 36695
	},
	{
	  "ADDRESS": "7701 OLD PASCAGOULA RD LOT 37",
	  "CITY": "THEODORE",
	  "STATE": "AL",
	  "ZIP": 36582
	},
	{
	  "ADDRESS": "2338 HARTFORD LAKE RD",
	  "CITY": "HARTFORD",
	  "STATE": "AL",
	  "ZIP": 36344
	},
	{
	  "ADDRESS": "100 NW 45TH ST",
	  "CITY": "MIAMI",
	  "STATE": "FL",
	  "ZIP": 33127
	},
	{
	  "ADDRESS": "830 WESTVIEW DR SW APT 140382",
	  "CITY": "ATLANTA",
	  "STATE": "GA",
	  "ZIP": 30314
	},
	{
	  "ADDRESS": "1420 BALBOA DR",
	  "CITY": "TALLAHASSEE",
	  "STATE": "FL",
	  "ZIP": 32305
	},
	{
	  "ADDRESS": "4747 N AUSTRALIAN AVE APT 206",
	  "CITY": "MANGONIA PARK",
	  "STATE": "FL",
	  "ZIP": 33407
	},
	{
	  "ADDRESS": "2201 48TH ST E APT 108",
	  "CITY": "TUSCALOOSA",
	  "STATE": "AL",
	  "ZIP": 35405
	},
	{
	  "ADDRESS": "2236 CHARSLEY RD",
	  "CITY": "KINGSPORT",
	  "STATE": "TN",
	  "ZIP": 37660
	},
	{
	  "ADDRESS": "1657 JOE LAWRENCE RD LOT 43",
	  "CITY": "ASHBURN",
	  "STATE": "GA",
	  "ZIP": 31714
	},
	{
	  "ADDRESS": "5119 CHURCHILL CV",
	  "CITY": "MEMPHIS",
	  "STATE": "TN",
	  "ZIP": 38118
	},
	{
	  "ADDRESS": "2890 SW 73RD WAY APT 1303",
	  "CITY": "DAVIE",
	  "STATE": "FL",
	  "ZIP": 33314
	},
	{
	  "ADDRESS": "PO BOX 36",
	  "CITY": "MIDDLEBURG",
	  "STATE": "FL",
	  "ZIP": 32050
	},
	{
	  "ADDRESS": "PO BOX 1178",
	  "CITY": "MARIANNA",
	  "STATE": "AR",
	  "ZIP": 72360
	},
	{
	  "ADDRESS": "2041 NW 1ST AVE",
	  "CITY": "POMPANO BEACH",
	  "STATE": "FL",
	  "ZIP": 33060
	},
	{
	  "ADDRESS": "6213 CRYSTAL DR",
	  "CITY": "COLUMBUS",
	  "STATE": "GA",
	  "ZIP": 31907
	},
	{
	  "ADDRESS": "502 E 31ST ST",
	  "CITY": "HIALEAH",
	  "STATE": "FL",
	  "ZIP": 33013
	},
	{
	  "ADDRESS": "PO BOX 824",
	  "CITY": "JESUP",
	  "STATE": "GA",
	  "ZIP": 31598
	},
	{
	  "ADDRESS": "306 SCOTT AVE",
	  "CITY": "NASHVILLE",
	  "STATE": "TN",
	  "ZIP": 37206
	},
	{
	  "ADDRESS": "PO BOX 400",
	  "CITY": "JEFFERSONVILLE",
	  "STATE": "GA",
	  "ZIP": 31044
	},
	{
	  "ADDRESS": "3785 MELANIE JUNE DR",
	  "CITY": "MEMPHIS",
	  "STATE": "TN",
	  "ZIP": 38135
	},
	{
	  "ADDRESS": "1166 WOODS DR",
	  "CITY": "COLLINS",
	  "STATE": "GA",
	  "ZIP": 30421
	},
	{
	  "ADDRESS": "404 W WASHINGTON ST",
	  "CITY": "MINNEOLA",
	  "STATE": "FL",
	  "ZIP": 34715
	},
	{
	  "ADDRESS": "11201 NE 3RD AVE",
	  "CITY": "MIAMI",
	  "STATE": "FL",
	  "ZIP": 33161
	},
	{
	  "ADDRESS": "720 WILLIS AVE",
	  "CITY": "CHURCH HILL",
	  "STATE": "TN",
	  "ZIP": 37642
	},
	{
	  "ADDRESS": "3349 SHORT 17TH ST",
	  "CITY": "TUSCALOOSA",
	  "STATE": "AL",
	  "ZIP": 35401
	},
	{
	  "ADDRESS": "2711 CENTRAL AVE S",
	  "CITY": "TIFTON",
	  "STATE": "GA",
	  "ZIP": 31794
	},
	{
	  "ADDRESS": "3887 BAGGETT HOLLOW RD",
	  "CITY": "PALMYRA",
	  "STATE": "TN",
	  "ZIP": 37142
	},
	{
	  "ADDRESS": "8721 N APPENINES PT",
	  "CITY": "DUNNELLON",
	  "STATE": "FL",
	  "ZIP": 34433
	},
	{
	  "ADDRESS": "3456 NW 32ND ST",
	  "CITY": "LAUDERDALE LAKES",
	  "STATE": "FL",
	  "ZIP": 33309
	},
	{
	  "ADDRESS": "3391 COUNTY ROAD 160",
	  "CITY": "LAFAYETTE",
	  "STATE": "AL",
	  "ZIP": 36862
	},
	{
	  "ADDRESS": "4700 HUMBER DR APT G10",
	  "CITY": "NASHVILLE",
	  "STATE": "TN",
	  "ZIP": 37211
	},
	{
	  "ADDRESS": "3413 BRIDGEWATER CT",
	  "CITY": "PHENIX CITY",
	  "STATE": "AL",
	  "ZIP": 36867
	},
	{
	  "ADDRESS": "610 FOREST SHORE DR",
	  "CITY": "MIRAMAR BEACH",
	  "STATE": "FL",
	  "ZIP": 32550
	},
	{
	  "ADDRESS": "6478 MADDOX RD",
	  "CITY": "MORROW",
	  "STATE": "GA",
	  "ZIP": 30260
	},
	{
	  "ADDRESS": "2106 RIDGEBROOK WAY NE",
	  "CITY": "ATLANTA",
	  "STATE": "GA",
	  "ZIP": 30345
	},
	{
	  "ADDRESS": "6044 TROY HWY",
	  "CITY": "MONTGOMERY",
	  "STATE": "AL",
	  "ZIP": 36116
	},
	{
	  "ADDRESS": "PO BOX 1066",
	  "CITY": "EVARTS",
	  "STATE": "KY",
	  "ZIP": 40828
	},
	{
	  "ADDRESS": "12626 WILLIS RD",
	  "CITY": "BAY MINETTE",
	  "STATE": "AL",
	  "ZIP": 36507
	},
	{
	  "ADDRESS": "7807 SW 6TH ST",
	  "CITY": "NORTH LAUDERDALE",
	  "STATE": "FL",
	  "ZIP": 33068
	},
	{
	  "ADDRESS": "3480 DAVAN LN",
	  "CITY": "MONROE",
	  "STATE": "GA",
	  "ZIP": 30655
	},
	{
	  "ADDRESS": "PO BOX 281",
	  "CITY": "PEARSON",
	  "STATE": "GA",
	  "ZIP": 31642
	},
	{
	  "ADDRESS": "300 ANNA AVE",
	  "CITY": "PALMETTO",
	  "STATE": "GA",
	  "ZIP": 30268
	},
	{
	  "ADDRESS": "PO BOX 48014",
	  "CITY": "JACKSONVILLE",
	  "STATE": "FL",
	  "ZIP": 32247
	},
	{
	  "ADDRESS": "4592 BAY LN",
	  "CITY": "MEMPHIS",
	  "STATE": "TN",
	  "ZIP": 38118
	},
	{
	  "ADDRESS": "15569 MAIN ST",
	  "CITY": "GRETNA",
	  "STATE": "FL",
	  "ZIP": 32332
	},
	{
	  "ADDRESS": "2375 SKY VISTA DR W",
	  "CITY": "SEMMES",
	  "STATE": "AL",
	  "ZIP": 36575
	},
	{
	  "ADDRESS": "2146 GREGORY DR SE",
	  "CITY": "CLEVELAND",
	  "STATE": "TN",
	  "ZIP": 37323
	},
	{
	  "ADDRESS": "5192 SYCAMORE CREEK RD",
	  "CITY": "WOODBURY",
	  "STATE": "TN",
	  "ZIP": 37190
	},
	{
	  "ADDRESS": "419 POPES STORE RD FRNT",
	  "CITY": "OCHLOCKNEE",
	  "STATE": "GA",
	  "ZIP": 31773
	},
	{
	  "ADDRESS": "312 WRIGHT ST",
	  "CITY": "THOMASVILLE",
	  "STATE": "GA",
	  "ZIP": 31792
	},
	{
	  "ADDRESS": "3131 CLARIDGE DR",
	  "CITY": "CONYERS",
	  "STATE": "GA",
	  "ZIP": 30094
	},
	{
	  "ADDRESS": "255 VANCE AVE",
	  "CITY": "MEMPHIS",
	  "STATE": "TN",
	  "ZIP": 38126
	},
	{
	  "ADDRESS": "600 LEE ROAD 959",
	  "CITY": "SMITHS STATION",
	  "STATE": "AL",
	  "ZIP": 36877
	},
	{
	  "ADDRESS": "9590 ATLANTIC BLVD",
	  "CITY": "JACKSONVILLE",
	  "STATE": "FL",
	  "ZIP": 32225
	},
	{
	  "ADDRESS": "PO BOX 323",
	  "CITY": "LUMBER CITY",
	  "STATE": "GA",
	  "ZIP": 31549
	},
	{
	  "ADDRESS": "PO BOX 385",
	  "CITY": "CARBON HILL",
	  "STATE": "AL",
	  "ZIP": 35549
	},
	{
	  "ADDRESS": "4701 OLD PLEASANT HILL RD APT 111",
	  "CITY": "KISSIMMEE",
	  "STATE": "FL",
	  "ZIP": 34759
	},
	{
	  "ADDRESS": "PO BOX 74",
	  "CITY": "BOLIGEE",
	  "STATE": "AL",
	  "ZIP": 35443
	},
	{
	  "ADDRESS": "14601 NW 185TH ST LOT 31",
	  "CITY": "HIALEAH",
	  "STATE": "FL",
	  "ZIP": 33018
	},
	{
	  "ADDRESS": "4891 NW 7TH ST",
	  "CITY": "PLANTATION",
	  "STATE": "FL",
	  "ZIP": 33317
	},
	{
	  "ADDRESS": "4348 PLAZA DR APT V312",
	  "CITY": "HOLIDAY",
	  "STATE": "FL",
	  "ZIP": 34691
	},
	{
	  "ADDRESS": "818 W PALM ST",
	  "CITY": "LANTANA",
	  "STATE": "FL",
	  "ZIP": 33462
	},
	{
	  "ADDRESS": "PO BOX 2547",
	  "CITY": "IMMOKALEE",
	  "STATE": "FL",
	  "ZIP": 34143
	},
	{
	  "ADDRESS": "1308 ATLANTIC DR",
	  "CITY": "RUSKIN",
	  "STATE": "FL",
	  "ZIP": 33570
	},
	{
	  "ADDRESS": "3836 HILTON DR",
	  "CITY": "MOBILE",
	  "STATE": "AL",
	  "ZIP": 36693
	},
	{
	  "ADDRESS": "4904 SUGAR VALLEY RD SW",
	  "CITY": "MABLETON",
	  "STATE": "GA",
	  "ZIP": 30126
	},
	{
	  "ADDRESS": "108 AMY RD",
	  "CITY": "UNIONVILLE",
	  "STATE": "TN",
	  "ZIP": 37180
	},
	{
	  "ADDRESS": "4274 CARROLLWOOD DR",
	  "CITY": "STONE MOUNTAIN",
	  "STATE": "GA",
	  "ZIP": 30083
	},
	{
	  "ADDRESS": "6034 MARTHA BERRY HWY NE",
	  "CITY": "ARMUCHEE",
	  "STATE": "GA",
	  "ZIP": 30105
	},
	{
	  "ADDRESS": "2204 KEY WEST CT APT 527",
	  "CITY": "KISSIMMEE",
	  "STATE": "FL",
	  "ZIP": 34741
	},
	{
	  "ADDRESS": "81 RIVERSIDE LNDG",
	  "CITY": "FORT MITCHELL",
	  "STATE": "AL",
	  "ZIP": 36856
	},
	{
	  "ADDRESS": "1804 SAN ANTONIO WAY APT 204",
	  "CITY": "ROCKLEDGE",
	  "STATE": "FL",
	  "ZIP": 32955
	},
	{
	  "ADDRESS": "2287 SCHILLINGER RD S APT 708",
	  "CITY": "MOBILE",
	  "STATE": "AL",
	  "ZIP": 36695
	},
	{
	  "ADDRESS": "406 OLD CEDARTOWN RD",
	  "CITY": "ROCKMART",
	  "STATE": "GA",
	  "ZIP": 30153
	},
	{
	  "ADDRESS": "11632 BIG CANOE",
	  "CITY": "BIG CANOE",
	  "STATE": "GA",
	  "ZIP": 30143
	},
	{
	  "ADDRESS": "301 WILSON ST E",
	  "CITY": "DOUGLAS",
	  "STATE": "GA",
	  "ZIP": 31533
	},
	{
	  "ADDRESS": "1144 JOHNSON CIR",
	  "CITY": "LAWRENCEVILLE",
	  "STATE": "GA",
	  "ZIP": 30046
	},
	{
	  "ADDRESS": "4872 VICTORIA AVE",
	  "CITY": "SARASOTA",
	  "STATE": "FL",
	  "ZIP": 34233
	},
	{
	  "ADDRESS": "PO BOX 1334",
	  "CITY": "BYRON",
	  "STATE": "GA",
	  "ZIP": 31008
	},
	{
	  "ADDRESS": "693 SW 168TH TER",
	  "CITY": "PEMBROKE PINES",
	  "STATE": "FL",
	  "ZIP": 33027
	},
	{
	  "ADDRESS": "1741 NW 135TH ST",
	  "CITY": "MIAMI",
	  "STATE": "FL",
	  "ZIP": 33167
	},
	{
	  "ADDRESS": "3709 JIM CUMMINGS HWY",
	  "CITY": "WOODBURY",
	  "STATE": "TN",
	  "ZIP": 37190
	},
	{
	  "ADDRESS": "7909 FENTON WAY",
	  "CITY": "POWELL",
	  "STATE": "TN",
	  "ZIP": 37849
	},
	{
	  "ADDRESS": "3251 RUSKIN RD",
	  "CITY": "MEMPHIS",
	  "STATE": "TN",
	  "ZIP": 38134
	},
	{
	  "ADDRESS": "3016 SHERWOOD BLVD",
	  "CITY": "DELRAY BEACH",
	  "STATE": "FL",
	  "ZIP": 33445
	},
	{
	  "ADDRESS": "213 FARAWAY HILLS DR",
	  "CITY": "GALLATIN",
	  "STATE": "TN",
	  "ZIP": 37066
	},
	{
	  "ADDRESS": "1115 CRESTWOOD BLVD",
	  "CITY": "LAKE WORTH",
	  "STATE": "FL",
	  "ZIP": 33460
	},
	{
	  "ADDRESS": "2541 OAKFORD DR",
	  "CITY": "FOLEY",
	  "STATE": "AL",
	  "ZIP": 36535
	},
	{
	  "ADDRESS": "149 ROSE TRACE CT",
	  "CITY": "BLOUNTVILLE",
	  "STATE": "TN",
	  "ZIP": 37617
	},
	{
	  "ADDRESS": "1015 W MAIN ST",
	  "CITY": "LEBANON",
	  "STATE": "TN",
	  "ZIP": 37087
	},
	{
	  "ADDRESS": "4502 N 36TH ST",
	  "CITY": "TAMPA",
	  "STATE": "FL",
	  "ZIP": 33610
	},
	{
	  "ADDRESS": "96 FARMINGTON DR",
	  "CITY": "WOODSTOCK",
	  "STATE": "GA",
	  "ZIP": 30188
	},
	{
	  "ADDRESS": "1110 NW 43RD AVE APT 2K",
	  "CITY": "MIAMI",
	  "STATE": "FL",
	  "ZIP": 33126
	},
	{
	  "ADDRESS": "2044 NW 26TH ST",
	  "CITY": "MIAMI",
	  "STATE": "FL",
	  "ZIP": 33142
	},
	{
	  "ADDRESS": "PO BOX 291",
	  "CITY": "LIVE OAK",
	  "STATE": "FL",
	  "ZIP": 32064
	},
	{
	  "ADDRESS": "PO BOX 6402",
	  "CITY": "DOUGLASVILLE",
	  "STATE": "GA",
	  "ZIP": 30154
	},
	{
	  "ADDRESS": "2657 SW ANN ARBOR RD",
	  "CITY": "PORT SAINT LUCIE",
	  "STATE": "FL",
	  "ZIP": 34953
	},
	{
	  "ADDRESS": "3118 HELMS RD",
	  "CITY": "LAUREL HILL",
	  "STATE": "FL",
	  "ZIP": 32567
	},
	{
	  "ADDRESS": "420 WHITFIELD RD",
	  "CITY": "CAMDEN",
	  "STATE": "TN",
	  "ZIP": 38320
	},
	{
	  "ADDRESS": "PO BOX 36",
	  "CITY": "COAHOMA",
	  "STATE": "MS",
	  "ZIP": 38617
	},
	{
	  "ADDRESS": "PO BOX 1306",
	  "CITY": "INDIANTOWN",
	  "STATE": "FL",
	  "ZIP": 34956
	},
	{
	  "ADDRESS": "1000 NW 155TH LN APT 226",
	  "CITY": "MIAMI",
	  "STATE": "FL",
	  "ZIP": 33169
	},
	{
	  "ADDRESS": "1721 W HUMPHREY ST",
	  "CITY": "TAMPA",
	  "STATE": "FL",
	  "ZIP": 33604
	},
	{
	  "ADDRESS": "5104 43RD AVE W",
	  "CITY": "BRADENTON",
	  "STATE": "FL",
	  "ZIP": 34209
	},
	{
	  "ADDRESS": "4360 PINSON VALLEY PKWY LOT 41",
	  "CITY": "BIRMINGHAM",
	  "STATE": "AL",
	  "ZIP": 35215
	},
	{
	  "ADDRESS": "PO BOX 542323",
	  "CITY": "GREENACRES",
	  "STATE": "FL",
	  "ZIP": 33454
	},
	{
	  "ADDRESS": "2620 OLIVER JONES RD",
	  "CITY": "ELLAVILLE",
	  "STATE": "GA",
	  "ZIP": 31806
	},
	{
	  "ADDRESS": "1035 SE 5TH AVE",
	  "CITY": "ARCADIA",
	  "STATE": "FL",
	  "ZIP": 34266
	},
	{
	  "ADDRESS": "2558 CRESCENT PARK CT",
	  "CITY": "ATLANTA",
	  "STATE": "GA",
	  "ZIP": 30339
	},
	{
	  "ADDRESS": "948 MOTLEY ST",
	  "CITY": "LAGRANGE",
	  "STATE": "GA",
	  "ZIP": 30241
	},
	{
	  "ADDRESS": "808 OLD THRASHER CT",
	  "CITY": "BRENTWOOD",
	  "STATE": "TN",
	  "ZIP": 37027
	},
	{
	  "ADDRESS": "4534 LONGTREE AVE",
	  "CITY": "MEMPHIS",
	  "STATE": "TN",
	  "ZIP": 38128
	},
	{
	  "ADDRESS": "97 STARBOW LN LOT 31",
	  "CITY": "NORMANDY",
	  "STATE": "TN",
	  "ZIP": 37360
	},
	{
	  "ADDRESS": "660 VALLEY CREST DR APT N249",
	  "CITY": "BIRMINGHAM",
	  "STATE": "AL",
	  "ZIP": 35215
	},
	{
	  "ADDRESS": "1033 HIGH MEADOW DR",
	  "CITY": "TALLAHASSEE",
	  "STATE": "FL",
	  "ZIP": 32311
	},
	{
	  "ADDRESS": "13335 NE 6TH AVE APT 36",
	  "CITY": "NORTH MIAMI",
	  "STATE": "FL",
	  "ZIP": 33161
	},
	{
	  "ADDRESS": "17145 SE 251ST TER",
	  "CITY": "UMATILLA",
	  "STATE": "FL",
	  "ZIP": 32784
	},
	{
	  "ADDRESS": "3280 CARL RD",
	  "CITY": "FRANKLIN",
	  "STATE": "TN",
	  "ZIP": 37064
	},
	{
	  "ADDRESS": "354 BORDER ST",
	  "CITY": "ROANOKE",
	  "STATE": "AL",
	  "ZIP": 36274
	},
	{
	  "ADDRESS": "2787 NE 208TH TER",
	  "CITY": "MIAMI",
	  "STATE": "FL",
	  "ZIP": 33180
	},
	{
	  "ADDRESS": "1015 COUNTRY CLUB DR APT 302",
	  "CITY": "MARGATE",
	  "STATE": "FL",
	  "ZIP": 33063
	},
	{
	  "ADDRESS": "519 6TH ST",
	  "CITY": "BRISTOL",
	  "STATE": "TN",
	  "ZIP": 37620
	},
	{
	  "ADDRESS": "1255 PECAN ST",
	  "CITY": "MOBILE",
	  "STATE": "AL",
	  "ZIP": 36603
	},
	{
	  "ADDRESS": "26 MARIA CIR",
	  "CITY": "JEFFERSON",
	  "STATE": "GA",
	  "ZIP": 30549
	},
	{
	  "ADDRESS": "5165 FRYER RD",
	  "CITY": "SAINT CLOUD",
	  "STATE": "FL",
	  "ZIP": 34771
	},
	{
	  "ADDRESS": "8260 NW 46TH ST",
	  "CITY": "LAUDERHILL",
	  "STATE": "FL",
	  "ZIP": 33351
	},
	{
	  "ADDRESS": "8136 BANYAN BLVD",
	  "CITY": "ORLANDO",
	  "STATE": "FL",
	  "ZIP": 32819
	},
	{
	  "ADDRESS": "5713 CLEARVIEW DR",
	  "CITY": "ORLANDO",
	  "STATE": "FL",
	  "ZIP": 32819
	},
	{
	  "ADDRESS": "1441 COUNTY ROAD 244",
	  "CITY": "ABBEVILLE",
	  "STATE": "MS",
	  "ZIP": 38601
	},
	{
	  "ADDRESS": "111 THAMES DR",
	  "CITY": "PRATTVILLE",
	  "STATE": "AL",
	  "ZIP": 36066
	},
	{
	  "ADDRESS": "631 W RESIDENCE AVE",
	  "CITY": "ALBANY",
	  "STATE": "GA",
	  "ZIP": 31701
	},
	{
	  "ADDRESS": "1124 STREAMDALE PT E",
	  "CITY": "ANTIOCH",
	  "STATE": "TN",
	  "ZIP": 37013
	},
	{
	  "ADDRESS": "PO BOX 4493",
	  "CITY": "LAGRANGE",
	  "STATE": "GA",
	  "ZIP": 30241
	},
	{
	  "ADDRESS": "PO BOX 100762",
	  "CITY": "NASHVILLE",
	  "STATE": "TN",
	  "ZIP": 37224
	},
	{
	  "ADDRESS": "1655B NW 1ST CT",
	  "CITY": "BOCA RATON",
	  "STATE": "FL",
	  "ZIP": 33432
	},
	{
	  "ADDRESS": "5331 VILLAGE LN",
	  "CITY": "LAND O LAKES",
	  "STATE": "FL",
	  "ZIP": 34638
	},
	{
	  "ADDRESS": "3841 NW 107TH WAY",
	  "CITY": "SUNRISE",
	  "STATE": "FL",
	  "ZIP": 33351
	},
	{
	  "ADDRESS": "107 EVERETTE CIR",
	  "CITY": "JEFFERSONVILLE",
	  "STATE": "GA",
	  "ZIP": 31044
	},
	{
	  "ADDRESS": "8 VIOLET LN",
	  "CITY": "CRAWFORDVILLE",
	  "STATE": "FL",
	  "ZIP": 32327
	},
	{
	  "ADDRESS": "444 HARPETH MEADOWS DR",
	  "CITY": "KINGSTON SPRINGS",
	  "STATE": "TN",
	  "ZIP": 37082
	},
	{
	  "ADDRESS": "15 CLAYTON AVE",
	  "CITY": "LEHIGH ACRES",
	  "STATE": "FL",
	  "ZIP": 33936
	},
	{
	  "ADDRESS": "PO BOX 305054",
	  "CITY": "NASHVILLE",
	  "STATE": "TN",
	  "ZIP": 37230
	},
	{
	  "ADDRESS": "1733 ANGLE DR",
	  "CITY": "LONGWOOD",
	  "STATE": "FL",
	  "ZIP": 32750
	},
	{
	  "ADDRESS": "8921 OCHIL LN",
	  "CITY": "WINSTON",
	  "STATE": "GA",
	  "ZIP": 30187
	},
	{
	  "ADDRESS": "4431 NW 30TH CT",
	  "CITY": "LAUDERDALE LAKES",
	  "STATE": "FL",
	  "ZIP": 33313
	},
	{
	  "ADDRESS": "3815 US HIGHWAY 301 N",
	  "CITY": "ELLENTON",
	  "STATE": "FL",
	  "ZIP": 34222
	},
	{
	  "ADDRESS": "2897 WARD LAKE WAY",
	  "CITY": "ELLENWOOD",
	  "STATE": "GA",
	  "ZIP": 30294
	},
	{
	  "ADDRESS": "3694 ANNEEWAKEE RD",
	  "CITY": "DOUGLASVILLE",
	  "STATE": "GA",
	  "ZIP": 30135
	},
	{
	  "ADDRESS": "214 BEECH CREEK CIR",
	  "CITY": "WINDER",
	  "STATE": "GA",
	  "ZIP": 30680
	},
	{
	  "ADDRESS": "809 JONATHAN DR",
	  "CITY": "LEBANON",
	  "STATE": "TN",
	  "ZIP": 37087
	},
	{
	  "ADDRESS": "6077 PRIMACY PKWY # 200",
	  "CITY": "MEMPHIS",
	  "STATE": "TN",
	  "ZIP": 38119
	},
	{
	  "ADDRESS": "PO BOX 88133",
	  "CITY": "ATLANTA",
	  "STATE": "GA",
	  "ZIP": 30356
	},
	{
	  "ADDRESS": "2746 NW 16TH ST",
	  "CITY": "MIAMI",
	  "STATE": "FL",
	  "ZIP": 33125
	},
	{
	  "ADDRESS": "180 TRUMAN JACKSON RD",
	  "CITY": "RUSSELLVILLE",
	  "STATE": "AL",
	  "ZIP": 35653
	},
	{
	  "ADDRESS": "1468 NW 100TH ST",
	  "CITY": "MIAMI",
	  "STATE": "FL",
	  "ZIP": 33147
	},
	{
	  "ADDRESS": "5327 WENDALEES CT",
	  "CITY": "ORLANDO",
	  "STATE": "FL",
	  "ZIP": 32812
	},
	{
	  "ADDRESS": "18303 BROOKPARK DR",
	  "CITY": "TAMPA",
	  "STATE": "FL",
	  "ZIP": 33647
	},
	{
	  "ADDRESS": "9460 STAPLEHURST DR",
	  "CITY": "JACKSONVILLE",
	  "STATE": "FL",
	  "ZIP": 32244
	},
	{
	  "ADDRESS": "5505 AVENUE L",
	  "CITY": "BIRMINGHAM",
	  "STATE": "AL",
	  "ZIP": 35208
	},
	{
	  "ADDRESS": "6031 SUMMERLAKE DR APT 208",
	  "CITY": "DAVIE",
	  "STATE": "FL",
	  "ZIP": 33314
	},
	{
	  "ADDRESS": "521 JONES RD",
	  "CITY": "STATHAM",
	  "STATE": "GA",
	  "ZIP": 30666
	},
	{
	  "ADDRESS": "419 BENT OAK LOOP",
	  "CITY": "DAVENPORT",
	  "STATE": "FL",
	  "ZIP": 33837
	},
	{
	  "ADDRESS": "2529 LAUDERDALE DR NE",
	  "CITY": "ATLANTA",
	  "STATE": "GA",
	  "ZIP": 30345
	},
	{
	  "ADDRESS": "PO BOX 952",
	  "CITY": "SAINT HELENA ISLAND",
	  "STATE": "SC",
	  "ZIP": 29920
	},
	{
	  "ADDRESS": "2858 RAMADA DR W",
	  "CITY": "MOBILE",
	  "STATE": "AL",
	  "ZIP": 36693
	},
	{
	  "ADDRESS": "937 46TH ST N APT A",
	  "CITY": "BIRMINGHAM",
	  "STATE": "AL",
	  "ZIP": 35212
	},
	{
	  "ADDRESS": "206 CHEROKEE CIR",
	  "CITY": "MADISONVILLE",
	  "STATE": "TN",
	  "ZIP": 37354
	},
	{
	  "ADDRESS": "2252 PEWTER DR",
	  "CITY": "KNOXVILLE",
	  "STATE": "TN",
	  "ZIP": 37909
	},
	{
	  "ADDRESS": "2444 ADINA DR NE APT C",
	  "CITY": "ATLANTA",
	  "STATE": "GA",
	  "ZIP": 30324
	},
	{
	  "ADDRESS": "PO BOX 222",
	  "CITY": "WHITE",
	  "STATE": "GA",
	  "ZIP": 30184
	},
	{
	  "ADDRESS": "723 HAWK LN",
	  "CITY": "KISSIMMEE",
	  "STATE": "FL",
	  "ZIP": 34759
	},
	{
	  "ADDRESS": "3504 PINWHEEL DR",
	  "CITY": "ANTIOCH",
	  "STATE": "TN",
	  "ZIP": 37013
	},
	{
	  "ADDRESS": "1644 HORSELEG CREEK RD SW",
	  "CITY": "ROME",
	  "STATE": "GA",
	  "ZIP": 30165
	},
	{
	  "ADDRESS": "606 BAILEY ST",
	  "CITY": "SAINT MARYS",
	  "STATE": "GA",
	  "ZIP": 31558
	},
	{
	  "ADDRESS": "4509 TRIANA BLVD SW LOT 162",
	  "CITY": "HUNTSVILLE",
	  "STATE": "AL",
	  "ZIP": 35805
	},
	{
	  "ADDRESS": "15695 SEA MIST LN",
	  "CITY": "WELLINGTON",
	  "STATE": "FL",
	  "ZIP": 33414
	},
	{
	  "ADDRESS": "725 LANG CIR",
	  "CITY": "COVINGTON",
	  "STATE": "GA",
	  "ZIP": 30014
	},
	{
	  "ADDRESS": "160 PRINCE EDWARD WAY",
	  "CITY": "COVINGTON",
	  "STATE": "GA",
	  "ZIP": 30016
	},
	{
	  "ADDRESS": "1574 COLONIAL DR",
	  "CITY": "MACON",
	  "STATE": "GA",
	  "ZIP": 31204
	},
	{
	  "ADDRESS": "150 INDUSTRIAL PARK RD UNIT 8",
	  "CITY": "DESTIN",
	  "STATE": "FL",
	  "ZIP": 32541
	},
	{
	  "ADDRESS": "2737 CLAUDETTE RD APT 3",
	  "CITY": "MEMPHIS",
	  "STATE": "TN",
	  "ZIP": 38118
	},
	{
	  "ADDRESS": "5228 COUNTY ROAD 4",
	  "CITY": "MINTER",
	  "STATE": "AL",
	  "ZIP": 36761
	},
	{
	  "ADDRESS": "3173 AQUARIUS AVE",
	  "CITY": "MEMPHIS",
	  "STATE": "TN",
	  "ZIP": 38118
	},
	{
	  "ADDRESS": "1802 MAPLEWOOD DR",
	  "CITY": "GREENACRES",
	  "STATE": "FL",
	  "ZIP": 33415
	},
	{
	  "ADDRESS": "1658 COUNTRY CHURCH RD",
	  "CITY": "LAMAR",
	  "STATE": "MS",
	  "ZIP": 38642
	},
	{
	  "ADDRESS": "807 ENGLEWOOD DR",
	  "CITY": "COLUMBUS",
	  "STATE": "GA",
	  "ZIP": 31907
	},
	{
	  "ADDRESS": "1602 MORGAN DR",
	  "CITY": "GRIFFIN",
	  "STATE": "GA",
	  "ZIP": 30223
	},
	{
	  "ADDRESS": "580 AUSTIN RD",
	  "CITY": "STOCKBRIDGE",
	  "STATE": "GA",
	  "ZIP": 30281
	},
	{
	  "ADDRESS": "110 ROBIN HOOD DR",
	  "CITY": "DOUGLASVILLE",
	  "STATE": "GA",
	  "ZIP": 30134
	},
	{
	  "ADDRESS": "756 LINCOLN RD",
	  "CITY": "MARYVILLE",
	  "STATE": "TN",
	  "ZIP": 37804
	},
	{
	  "ADDRESS": "198 EW BOOTH RD",
	  "CITY": "TY TY",
	  "STATE": "GA",
	  "ZIP": 31795
	},
	{
	  "ADDRESS": "5749 SHOAL CREEK DR",
	  "CITY": "DOUGLASVILLE",
	  "STATE": "GA",
	  "ZIP": 30135
	},
	{
	  "ADDRESS": "574 GATES RD",
	  "CITY": "WOODBURY",
	  "STATE": "GA",
	  "ZIP": 30293
	},
	{
	  "ADDRESS": "2615 WYNTERHALL RD SE APT D",
	  "CITY": "HUNTSVILLE",
	  "STATE": "AL",
	  "ZIP": 35803
	},
	{
	  "ADDRESS": "1494 SYCAMORE DR",
	  "CITY": "CHAPEL HILL",
	  "STATE": "TN",
	  "ZIP": 37034
	},
	{
	  "ADDRESS": "PO BOX 1326",
	  "CITY": "JASPER",
	  "STATE": "FL",
	  "ZIP": 32052
	},
	{
	  "ADDRESS": "388 MOORE DR",
	  "CITY": "ALPINE",
	  "STATE": "AL",
	  "ZIP": 35014
	},
	{
	  "ADDRESS": "114 E FAMBROUGH ST",
	  "CITY": "MONROE",
	  "STATE": "GA",
	  "ZIP": 30655
	},
	{
	  "ADDRESS": "PO BOX 448",
	  "CITY": "DAWSON",
	  "STATE": "GA",
	  "ZIP": 39842
	},
	{
	  "ADDRESS": "519 S 10TH ST",
	  "CITY": "NASHVILLE",
	  "STATE": "TN",
	  "ZIP": 37206
	},
	{
	  "ADDRESS": "10575 MORTON CHASE WAY",
	  "CITY": "ALPHARETTA",
	  "STATE": "GA",
	  "ZIP": 30022
	},
	{
	  "ADDRESS": "955 HAMMOCK RD",
	  "CITY": "COY",
	  "STATE": "AL",
	  "ZIP": 36435
	},
	{
	  "ADDRESS": "2711 AMANDA KAY WAY",
	  "CITY": "KISSIMMEE",
	  "STATE": "FL",
	  "ZIP": 34744
	},
	{
	  "ADDRESS": "404 W CHILHOWIE AVE",
	  "CITY": "JOHNSON CITY",
	  "STATE": "TN",
	  "ZIP": 37604
	},
	{
	  "ADDRESS": "706 S COLLEGE ST",
	  "CITY": "WINCHESTER",
	  "STATE": "TN",
	  "ZIP": 37398
	},
	{
	  "ADDRESS": "119 MEADOW DR",
	  "CITY": "DICKSON",
	  "STATE": "TN",
	  "ZIP": 37055
	},
	{
	  "ADDRESS": "4763 ATLANTA CT",
	  "CITY": "JACKSONVILLE",
	  "STATE": "FL",
	  "ZIP": 32210
	},
	{
	  "ADDRESS": "1022 UNIVERSITY ST",
	  "CITY": "MEMPHIS",
	  "STATE": "TN",
	  "ZIP": 38107
	},
	{
	  "ADDRESS": "341 SW 23RD ST",
	  "CITY": "FORT LAUDERDALE",
	  "STATE": "FL",
	  "ZIP": 33315
	},
	{
	  "ADDRESS": "PO BOX 35",
	  "CITY": "GLADEVILLE",
	  "STATE": "TN",
	  "ZIP": 37071
	},
	{
	  "ADDRESS": "2404 W HERNANDEZ ST",
	  "CITY": "PENSACOLA",
	  "STATE": "FL",
	  "ZIP": 32505
	},
	{
	  "ADDRESS": "3150 NW 12TH AVE",
	  "CITY": "MIAMI",
	  "STATE": "FL",
	  "ZIP": 33127
	},
	{
	  "ADDRESS": "2400 SPRINGDALE BLVD APT P306",
	  "CITY": "PALM SPRINGS",
	  "STATE": "FL",
	  "ZIP": 33461
	},
	{
	  "ADDRESS": "3505 E FRIERSON AVE",
	  "CITY": "TAMPA",
	  "STATE": "FL",
	  "ZIP": 33610
	},
	{
	  "ADDRESS": "1321 S 16TH AVE",
	  "CITY": "HOLLYWOOD",
	  "STATE": "FL",
	  "ZIP": 33020
	},
	{
	  "ADDRESS": "670 VIRGINIA AVE",
	  "CITY": "GALLATIN",
	  "STATE": "TN",
	  "ZIP": 37066
	},
	{
	  "ADDRESS": "1966 VICTORIA AVE",
	  "CITY": "MEMPHIS",
	  "STATE": "TN",
	  "ZIP": 38116
	},
	{
	  "ADDRESS": "1232 CARMICHAEL ST",
	  "CITY": "MORRISTOWN",
	  "STATE": "TN",
	  "ZIP": 37814
	},
	{
	  "ADDRESS": "2846 MONICA CT SW",
	  "CITY": "ATLANTA",
	  "STATE": "GA",
	  "ZIP": 30311
	},
	{
	  "ADDRESS": "PO BOX 214",
	  "CITY": "HOLLYWOOD",
	  "STATE": "AL",
	  "ZIP": 35752
	},
	{
	  "ADDRESS": "2705 DONCASTER DR APT A",
	  "CITY": "ALBANY",
	  "STATE": "GA",
	  "ZIP": 31707
	},
	{
	  "ADDRESS": "422 NW 10TH AVE",
	  "CITY": "POMPANO BEACH",
	  "STATE": "FL",
	  "ZIP": 33060
	},
	{
	  "ADDRESS": "PO BOX 417",
	  "CITY": "JEFFERSONVILLE",
	  "STATE": "GA",
	  "ZIP": 31044
	},
	{
	  "ADDRESS": "1601 HICKS DITCH RD",
	  "CITY": "EUSTIS",
	  "STATE": "FL",
	  "ZIP": 32726
	},
	{
	  "ADDRESS": "1400 CROMARTIE BEACH DR",
	  "CITY": "ALBANY",
	  "STATE": "GA",
	  "ZIP": 31705
	},
	{
	  "ADDRESS": "218 WESTWOOD CIR",
	  "CITY": "DALTON",
	  "STATE": "GA",
	  "ZIP": 30721
	},
	{
	  "ADDRESS": "3811 DAVIS RD",
	  "CITY": "MACON",
	  "STATE": "GA",
	  "ZIP": 31217
	},
	{
	  "ADDRESS": "6037 TARAWOOD DR",
	  "CITY": "ORLANDO",
	  "STATE": "FL",
	  "ZIP": 32819
	},
	{
	  "ADDRESS": "847 LODGEVIEW DR",
	  "CITY": "BETHLEHEM",
	  "STATE": "GA",
	  "ZIP": 30620
	},
	{
	  "ADDRESS": "7679 SW 79TH PL",
	  "CITY": "OCALA",
	  "STATE": "FL",
	  "ZIP": 34476
	},
	{
	  "ADDRESS": "421 SHEILA AVE",
	  "CITY": "INTERLACHEN",
	  "STATE": "FL",
	  "ZIP": 32148
	},
	{
	  "ADDRESS": "PO BOX 2967",
	  "CITY": "RIVERVIEW",
	  "STATE": "FL",
	  "ZIP": 33568
	},
	{
	  "ADDRESS": "2533 CUNNINGHAM RD",
	  "CITY": "KNOXVILLE",
	  "STATE": "TN",
	  "ZIP": 37918
	},
	{
	  "ADDRESS": "427 SARAH DR",
	  "CITY": "WARNER ROBINS",
	  "STATE": "GA",
	  "ZIP": 31093
	},
	{
	  "ADDRESS": "PO BOX 14",
	  "CITY": "BYBEE",
	  "STATE": "TN",
	  "ZIP": 37713
	},
	{
	  "ADDRESS": "837 JEFFERY LN",
	  "CITY": "BIRMINGHAM",
	  "STATE": "AL",
	  "ZIP": 35235
	},
	{
	  "ADDRESS": "9 BOXWOOD LN NE",
	  "CITY": "ROME",
	  "STATE": "GA",
	  "ZIP": 30165
	},
	{
	  "ADDRESS": "2291 LOWER BETHANY RD",
	  "CITY": "BALL GROUND",
	  "STATE": "GA",
	  "ZIP": 30107
	},
	{
	  "ADDRESS": "15 LAKE ST LOT 156",
	  "CITY": "JACKSONVILLE",
	  "STATE": "AL",
	  "ZIP": 36265
	},
	{
	  "ADDRESS": "1795 N MCDONOUGH RD LOT 600",
	  "CITY": "GRIFFIN",
	  "STATE": "GA",
	  "ZIP": 30223
	},
	{
	  "ADDRESS": "9350 SARSEN DR",
	  "CITY": "CORDOVA",
	  "STATE": "TN",
	  "ZIP": 38016
	},
	{
	  "ADDRESS": "237 CHARLES ST",
	  "CITY": "NEWPORT",
	  "STATE": "TN",
	  "ZIP": 37821
	},
	{
	  "ADDRESS": "1210 SMITH AVE SW APT 4",
	  "CITY": "DECATUR",
	  "STATE": "AL",
	  "ZIP": 35603
	},
	{
	  "ADDRESS": "9665 WHITEFIELD AVE LOT 7",
	  "CITY": "SAVANNAH",
	  "STATE": "GA",
	  "ZIP": 31406
	},
	{
	  "ADDRESS": "114 WILD HERON RD",
	  "CITY": "SAVANNAH",
	  "STATE": "GA",
	  "ZIP": 31419
	},
	{
	  "ADDRESS": "983 ELDRIDGE AVE",
	  "CITY": "MEMPHIS",
	  "STATE": "TN",
	  "ZIP": 38107
	},
	{
	  "ADDRESS": "6237 MONICA DR",
	  "CITY": "MORROW",
	  "STATE": "GA",
	  "ZIP": 30260
	},
	{
	  "ADDRESS": "3004 CANDLER RD",
	  "CITY": "GAINESVILLE",
	  "STATE": "GA",
	  "ZIP": 30507
	},
	{
	  "ADDRESS": "715 E LIME ST APT 207",
	  "CITY": "TARPON SPRINGS",
	  "STATE": "FL",
	  "ZIP": 34689
	},
	{
	  "ADDRESS": "141 SE SPRIG CT LOT 6",
	  "CITY": "LAKE CITY",
	  "STATE": "FL",
	  "ZIP": 32025
	},
	{
	  "ADDRESS": "3896 STEWARTS LN",
	  "CITY": "NASHVILLE",
	  "STATE": "TN",
	  "ZIP": 37218
	},
	{
	  "ADDRESS": "80 DREWS WAY",
	  "CITY": "LINCOLN",
	  "STATE": "AL",
	  "ZIP": 35096
	},
	{
	  "ADDRESS": "PO BOX 394",
	  "CITY": "SPARTA",
	  "STATE": "GA",
	  "ZIP": 31087
	},
	{
	  "ADDRESS": "138 TOWN CREEK DR NE",
	  "CITY": "CALHOUN",
	  "STATE": "GA",
	  "ZIP": 30701
	},
	{
	  "ADDRESS": "376 MACY ST",
	  "CITY": "WEST PALM BEACH",
	  "STATE": "FL",
	  "ZIP": 33405
	},
	{
	  "ADDRESS": "3521 SW 170TH AVE",
	  "CITY": "MIRAMAR",
	  "STATE": "FL",
	  "ZIP": 33027
	},
	{
	  "ADDRESS": "644 ESSEX DR",
	  "CITY": "DEMOPOLIS",
	  "STATE": "AL",
	  "ZIP": 36732
	},
	{
	  "ADDRESS": "PO BOX 560031",
	  "CITY": "MIAMI",
	  "STATE": "FL",
	  "ZIP": 33256
	},
	{
	  "ADDRESS": "3460 BUFORD HWY NE APT K7",
	  "CITY": "BROOKHAVEN",
	  "STATE": "GA",
	  "ZIP": 30329
	},
	{
	  "ADDRESS": "3682 STEELE ST APT 4",
	  "CITY": "MEMPHIS",
	  "STATE": "TN",
	  "ZIP": 38127
	},
	{
	  "ADDRESS": "510 10TH ST",
	  "CITY": "COLUMBUS",
	  "STATE": "GA",
	  "ZIP": 31901
	},
	{
	  "ADDRESS": "PO BOX 205",
	  "CITY": "ALABASTER",
	  "STATE": "AL",
	  "ZIP": 35114
	},
	{
	  "ADDRESS": "3612 32ND CT",
	  "CITY": "TUSCALOOSA",
	  "STATE": "AL",
	  "ZIP": 35401
	},
	{
	  "ADDRESS": "7 DAYCARE LN",
	  "CITY": "SAINT HELENA ISLAND",
	  "STATE": "SC",
	  "ZIP": 29920
	},
	{
	  "ADDRESS": "305 SCOTTS CREEK PL",
	  "CITY": "HERMITAGE",
	  "STATE": "TN",
	  "ZIP": 37076
	},
	{
	  "ADDRESS": "1803 CARROLLTON VILLA RICA HWY",
	  "CITY": "VILLA RICA",
	  "STATE": "GA",
	  "ZIP": 30180
	},
	{
	  "ADDRESS": "5400 GETWELL RD",
	  "CITY": "MEMPHIS",
	  "STATE": "TN",
	  "ZIP": 38118
	},
	{
	  "ADDRESS": "1516 E MCLEMORE AVE",
	  "CITY": "MEMPHIS",
	  "STATE": "TN",
	  "ZIP": 38106
	},
	{
	  "ADDRESS": "1311 SW 92ND AVE",
	  "CITY": "MIAMI",
	  "STATE": "FL",
	  "ZIP": 33174
	},
	{
	  "ADDRESS": "6649 VAIL PASS",
	  "CITY": "DOUGLASVILLE",
	  "STATE": "GA",
	  "ZIP": 30134
	},
	{
	  "ADDRESS": "448 LEE ST",
	  "CITY": "HOGANSVILLE",
	  "STATE": "GA",
	  "ZIP": 30230
	},
	{
	  "ADDRESS": "1792 BLACK BEAR CIR E",
	  "CITY": "CORDOVA",
	  "STATE": "TN",
	  "ZIP": 38016
	},
	{
	  "ADDRESS": "30 COUNTY ROAD 158",
	  "CITY": "CORNING",
	  "STATE": "AR",
	  "ZIP": 72422
	},
	{
	  "ADDRESS": "152 ANDERSON RD",
	  "CITY": "JOHNSON CITY",
	  "STATE": "TN",
	  "ZIP": 37601
	},
	{
	  "ADDRESS": "PO BOX 721",
	  "CITY": "COLLINSVILLE",
	  "STATE": "AL",
	  "ZIP": 35961
	},
	{
	  "ADDRESS": "107 BAYWOOD DR SW",
	  "CITY": "MILLEDGEVILLE",
	  "STATE": "GA",
	  "ZIP": 31061
	},
	{
	  "ADDRESS": "9200 E BAY HARBOR DR APT 19",
	  "CITY": "BAY HARBOR ISLANDS",
	  "STATE": "FL",
	  "ZIP": 33154
	},
	{
	  "ADDRESS": "11725 SW 80TH RD",
	  "CITY": "MIAMI",
	  "STATE": "FL",
	  "ZIP": 33156
	},
	{
	  "ADDRESS": "4111 MUDDY POND RD",
	  "CITY": "MONTEREY",
	  "STATE": "TN",
	  "ZIP": 38574
	},
	{
	  "ADDRESS": "5618 7TH AVE",
	  "CITY": "EASTMAN",
	  "STATE": "GA",
	  "ZIP": 31023
	},
	{
	  "ADDRESS": "222 N 9TH ST",
	  "CITY": "GRIFFIN",
	  "STATE": "GA",
	  "ZIP": 30223
	},
	{
	  "ADDRESS": "1735 MEADOWVIEW LN",
	  "CITY": "MORRISTOWN",
	  "STATE": "TN",
	  "ZIP": 37814
	},
	{
	  "ADDRESS": "9004 SW 104TH TER",
	  "CITY": "GAINESVILLE",
	  "STATE": "FL",
	  "ZIP": 32608
	},
	{
	  "ADDRESS": "PO BOX 545",
	  "CITY": "STARKE",
	  "STATE": "FL",
	  "ZIP": 32091
	},
	{
	  "ADDRESS": "8981 BENT GRASS LOOP W",
	  "CITY": "SOUTHAVEN",
	  "STATE": "MS",
	  "ZIP": 38671
	},
	{
	  "ADDRESS": "201 MULLINAX LN",
	  "CITY": "SEVIERVILLE",
	  "STATE": "TN",
	  "ZIP": 37876
	},
	{
	  "ADDRESS": "3029 JESS WILSON RD LOT 2",
	  "CITY": "PIGEON FORGE",
	  "STATE": "TN",
	  "ZIP": 37863
	},
	{
	  "ADDRESS": "238 KELLEY RD",
	  "CITY": "BAINBRIDGE",
	  "STATE": "GA",
	  "ZIP": 39817
	},
	{
	  "ADDRESS": "1590 AIRPORT RD APT 1721",
	  "CITY": "GALLATIN",
	  "STATE": "TN",
	  "ZIP": 37066
	},
	{
	  "ADDRESS": "2553 W OAK RIDGE RD APT 509",
	  "CITY": "ORLANDO",
	  "STATE": "FL",
	  "ZIP": 32809
	},
	{
	  "ADDRESS": "PO BOX 226",
	  "CITY": "RIDGELAND",
	  "STATE": "SC",
	  "ZIP": 29936
	},
	{
	  "ADDRESS": "218 FOND CT",
	  "CITY": "PALMETTO",
	  "STATE": "GA",
	  "ZIP": 30268
	},
	{
	  "ADDRESS": "10537 HUNTRIDGE RD",
	  "CITY": "ORLANDO",
	  "STATE": "FL",
	  "ZIP": 32825
	},
	{
	  "ADDRESS": "3077 STRAIGHT GUT RD",
	  "CITY": "LA FAYETTE",
	  "STATE": "GA",
	  "ZIP": 30728
	},
	{
	  "ADDRESS": "1230 BROKEN BOW CIR",
	  "CITY": "ALABASTER",
	  "STATE": "AL",
	  "ZIP": 35007
	},
	{
	  "ADDRESS": "1090 EMERALD VALLEY LN",
	  "CITY": "SYLACAUGA",
	  "STATE": "AL",
	  "ZIP": 35151
	},
	{
	  "ADDRESS": "18850 SW 360TH ST",
	  "CITY": "HOMESTEAD",
	  "STATE": "FL",
	  "ZIP": 33034
	},
	{
	  "ADDRESS": "1555 PEPPERWOOD ST",
	  "CITY": "MEMPHIS",
	  "STATE": "TN",
	  "ZIP": 38134
	},
	{
	  "ADDRESS": "7721 BALBOA ST",
	  "CITY": "SUNRISE",
	  "STATE": "FL",
	  "ZIP": 33351
	},
	{
	  "ADDRESS": "426 OLD PELHAM RD",
	  "CITY": "BAINBRIDGE",
	  "STATE": "GA",
	  "ZIP": 39817
	},
	{
	  "ADDRESS": "2523 WATER AVE",
	  "CITY": "SELMA",
	  "STATE": "AL",
	  "ZIP": 36703
	},
	{
	  "ADDRESS": "1442 MAIN ST",
	  "CITY": "SUMITON",
	  "STATE": "AL",
	  "ZIP": 35148
	},
	{
	  "ADDRESS": "193 HOYT ST",
	  "CITY": "ATHENS",
	  "STATE": "GA",
	  "ZIP": 30601
	},
	{
	  "ADDRESS": "258 CLARK RD",
	  "CITY": "SEALE",
	  "STATE": "AL",
	  "ZIP": 36875
	},
	{
	  "ADDRESS": "85 DUNBAR ST",
	  "CITY": "SYLACAUGA",
	  "STATE": "AL",
	  "ZIP": 35150
	},
	{
	  "ADDRESS": "32 SINGER HTS",
	  "CITY": "CUTHBERT",
	  "STATE": "GA",
	  "ZIP": 39840
	},
	{
	  "ADDRESS": "2623 21ST STREET ENSLEY",
	  "CITY": "BIRMINGHAM",
	  "STATE": "AL",
	  "ZIP": 35208
	},
	{
	  "ADDRESS": "109 MORNINGSTAR DR",
	  "CITY": "PUNTA GORDA",
	  "STATE": "FL",
	  "ZIP": 33950
	},
	{
	  "ADDRESS": "2031 CASCADES BLVD UNIT 308",
	  "CITY": "KISSIMMEE",
	  "STATE": "FL",
	  "ZIP": 34741
	},
	{
	  "ADDRESS": "2375 RIDGEDALE DR",
	  "CITY": "GRAYSON",
	  "STATE": "GA",
	  "ZIP": 30017
	},
	{
	  "ADDRESS": "PO BOX 362203",
	  "CITY": "DECATUR",
	  "STATE": "GA",
	  "ZIP": 30036
	},
	{
	  "ADDRESS": "189 GLADSTONE DR",
	  "CITY": "RINGGOLD",
	  "STATE": "GA",
	  "ZIP": 30736
	},
	{
	  "ADDRESS": "14067 OSPREY LINKS RD APT 411",
	  "CITY": "ORLANDO",
	  "STATE": "FL",
	  "ZIP": 32837
	},
	{
	  "ADDRESS": "4690 NW 42ND ST",
	  "CITY": "LAUDERDALE LAKES",
	  "STATE": "FL",
	  "ZIP": 33319
	},
	{
	  "ADDRESS": "3281 FAIRBANKS ST",
	  "CITY": "MEMPHIS",
	  "STATE": "TN",
	  "ZIP": 38128
	},
	{
	  "ADDRESS": "1245 MCGIRTS CREEK DR E",
	  "CITY": "JACKSONVILLE",
	  "STATE": "FL",
	  "ZIP": 32221
	},
	{
	  "ADDRESS": "PO BOX 293",
	  "CITY": "BROOKFIELD",
	  "STATE": "GA",
	  "ZIP": 31727
	},
	{
	  "ADDRESS": "2706 1ST PL",
	  "CITY": "VERO BEACH",
	  "STATE": "FL",
	  "ZIP": 32968
	},
	{
	  "ADDRESS": "191 WYNN DR",
	  "CITY": "ALBANY",
	  "STATE": "GA",
	  "ZIP": 31705
	},
	{
	  "ADDRESS": "131 N PICKENS ST APT G56",
	  "CITY": "MILLEDGEVILLE",
	  "STATE": "GA",
	  "ZIP": 31061
	},
	{
	  "ADDRESS": "9604 SW 20TH TER",
	  "CITY": "MIAMI",
	  "STATE": "FL",
	  "ZIP": 33165
	},
	{
	  "ADDRESS": "755 NORTHRIDGE TRCE",
	  "CITY": "ALBERTVILLE",
	  "STATE": "AL",
	  "ZIP": 35951
	},
	{
	  "ADDRESS": "PO BOX 425",
	  "CITY": "MONROEVILLE",
	  "STATE": "AL",
	  "ZIP": 36461
	},
	{
	  "ADDRESS": "5212 ALEXANDER ST",
	  "CITY": "UNION CITY",
	  "STATE": "GA",
	  "ZIP": 30291
	},
	{
	  "ADDRESS": "150 73RD AVE N APT 315",
	  "CITY": "SAINT PETERSBURG",
	  "STATE": "FL",
	  "ZIP": 33702
	},
	{
	  "ADDRESS": "170 AUTUMN MOON TRL",
	  "CITY": "FAYETTEVILLE",
	  "STATE": "GA",
	  "ZIP": 30215
	},
	{
	  "ADDRESS": "115 BRIGHTON RD",
	  "CITY": "GREENSBORO",
	  "STATE": "GA",
	  "ZIP": 30642
	},
	{
	  "ADDRESS": "206 BOOKER T WASHINGTON ST",
	  "CITY": "TENNILLE",
	  "STATE": "GA",
	  "ZIP": 31089
	},
	{
	  "ADDRESS": "PO BOX 1304",
	  "CITY": "CAIRO",
	  "STATE": "GA",
	  "ZIP": 39828
	},
	{
	  "ADDRESS": "849 29TH ST SW",
	  "CITY": "BIRMINGHAM",
	  "STATE": "AL",
	  "ZIP": 35211
	},
	{
	  "ADDRESS": "208 FIVE MILE RD",
	  "CITY": "EUFAULA",
	  "STATE": "AL",
	  "ZIP": 36027
	},
	{
	  "ADDRESS": "232 RIVER POINTE DR",
	  "CITY": "MACON",
	  "STATE": "GA",
	  "ZIP": 31211
	},
	{
	  "ADDRESS": "1413 NW 24TH AVE",
	  "CITY": "FORT LAUDERDALE",
	  "STATE": "FL",
	  "ZIP": 33311
	},
	{
	  "ADDRESS": "515 W CAROLYN AVE",
	  "CITY": "FOLEY",
	  "STATE": "AL",
	  "ZIP": 36535
	},
	{
	  "ADDRESS": "9707 DORTMUND DR SE",
	  "CITY": "HUNTSVILLE",
	  "STATE": "AL",
	  "ZIP": 35803
	},
	{
	  "ADDRESS": "11672 AL HIGHWAY 223",
	  "CITY": "TROY",
	  "STATE": "AL",
	  "ZIP": 36081
	},
	{
	  "ADDRESS": "PO BOX 3013",
	  "CITY": "JACKSON",
	  "STATE": "TN",
	  "ZIP": 38303
	},
	{
	  "ADDRESS": "931 NW 14TH ST",
	  "CITY": "FORT LAUDERDALE",
	  "STATE": "FL",
	  "ZIP": 33311
	},
	{
	  "ADDRESS": "2111 MCLAREN CIR APT 23",
	  "CITY": "KISSIMMEE",
	  "STATE": "FL",
	  "ZIP": 34744
	},
	{
	  "ADDRESS": "400 SW 118TH AVE",
	  "CITY": "MIAMI",
	  "STATE": "FL",
	  "ZIP": 33184
	},
	{
	  "ADDRESS": "201 W WELWOOD DR",
	  "CITY": "SAVANNAH",
	  "STATE": "GA",
	  "ZIP": 31419
	},
	{
	  "ADDRESS": "803 E PERRY ST",
	  "CITY": "DEMOPOLIS",
	  "STATE": "AL",
	  "ZIP": 36732
	},
	{
	  "ADDRESS": "15 COLLINS TRCE",
	  "CITY": "COVINGTON",
	  "STATE": "GA",
	  "ZIP": 30016
	},
	{
	  "ADDRESS": "775 FLINT RIVER ESTATES RD",
	  "CITY": "ROBERTA",
	  "STATE": "GA",
	  "ZIP": 31078
	},
	{
	  "ADDRESS": "2121 SARAH CT APT F58",
	  "CITY": "NORCROSS",
	  "STATE": "GA",
	  "ZIP": 30093
	},
	{
	  "ADDRESS": "331 PLEDGER ST",
	  "CITY": "LA FAYETTE",
	  "STATE": "GA",
	  "ZIP": 30728
	},
	{
	  "ADDRESS": "3304 W BRAINERD ST",
	  "CITY": "PENSACOLA",
	  "STATE": "FL",
	  "ZIP": 32505
	},
	{
	  "ADDRESS": "1346 CRAWFORD ST",
	  "CITY": "MACON",
	  "STATE": "GA",
	  "ZIP": 31206
	},
	{
	  "ADDRESS": "1811 W BURKE ST",
	  "CITY": "TAMPA",
	  "STATE": "FL",
	  "ZIP": 33604
	},
	{
	  "ADDRESS": "2723 ARGYLE RD",
	  "CITY": "MONTGOMERY",
	  "STATE": "AL",
	  "ZIP": 36116
	},
	{
	  "ADDRESS": "11451 NW 31ST PL",
	  "CITY": "SUNRISE",
	  "STATE": "FL",
	  "ZIP": 33323
	},
	{
	  "ADDRESS": "537 WILLOW LN",
	  "CITY": "BIRMINGHAM",
	  "STATE": "AL",
	  "ZIP": 35206
	},
	{
	  "ADDRESS": "761 WALKER AVE",
	  "CITY": "MEMPHIS",
	  "STATE": "TN",
	  "ZIP": 38126
	},
	{
	  "ADDRESS": "10 BRYANT ST",
	  "CITY": "STATESBORO",
	  "STATE": "GA",
	  "ZIP": 30458
	},
	{
	  "ADDRESS": "13700 RICHMOND PARK DR N APT 1106",
	  "CITY": "JACKSONVILLE",
	  "STATE": "FL",
	  "ZIP": 32224
	},
	{
	  "ADDRESS": "PO BOX 201",
	  "CITY": "TUNICA",
	  "STATE": "MS",
	  "ZIP": 38676
	},
	{
	  "ADDRESS": "2114 NW 3RD AVE",
	  "CITY": "MIAMI",
	  "STATE": "FL",
	  "ZIP": 33127
	},
	{
	  "ADDRESS": "4147 RIVES MOUNT PELIA RD",
	  "CITY": "RIVES",
	  "STATE": "TN",
	  "ZIP": 38253
	},
	{
	  "ADDRESS": "420 CONRAD ST",
	  "CITY": "MONTGOMERY",
	  "STATE": "AL",
	  "ZIP": 36110
	},
	{
	  "ADDRESS": "2172 LOVVORN RD LOT 8",
	  "CITY": "CARROLLTON",
	  "STATE": "GA",
	  "ZIP": 30117
	},
	{
	  "ADDRESS": "8848 SOUTHAMPTON DR",
	  "CITY": "MIRAMAR",
	  "STATE": "FL",
	  "ZIP": 33025
	},
	{
	  "ADDRESS": "2420 E IDA ST",
	  "CITY": "TAMPA",
	  "STATE": "FL",
	  "ZIP": 33610
	},
	{
	  "ADDRESS": "PO BOX 1001",
	  "CITY": "DANVILLE",
	  "STATE": "GA",
	  "ZIP": 31017
	},
	{
	  "ADDRESS": "3669 ARDMORE ST",
	  "CITY": "MEMPHIS",
	  "STATE": "TN",
	  "ZIP": 38127
	},
	{
	  "ADDRESS": "279 ROBINSON FARM RD",
	  "CITY": "SHORTER",
	  "STATE": "AL",
	  "ZIP": 36075
	},
	{
	  "ADDRESS": "1800 7TH ST SE",
	  "CITY": "DECATUR",
	  "STATE": "AL",
	  "ZIP": 35601
	},
	{
	  "ADDRESS": "749 RUDOLPH RD",
	  "CITY": "HAYNEVILLE",
	  "STATE": "AL",
	  "ZIP": 36040
	},
	{
	  "ADDRESS": "5938 HOVAN AVE",
	  "CITY": "PLANT CITY",
	  "STATE": "FL",
	  "ZIP": 33565
	},
	{
	  "ADDRESS": "703 CHURCH ST",
	  "CITY": "ROCKMART",
	  "STATE": "GA",
	  "ZIP": 30153
	},
	{
	  "ADDRESS": "2908 PIEDMONT MANOR DR",
	  "CITY": "ORANGE PARK",
	  "STATE": "FL",
	  "ZIP": 32065
	},
	{
	  "ADDRESS": "2110 BRODICK LN",
	  "CITY": "LITHIA SPRINGS",
	  "STATE": "GA",
	  "ZIP": 30122
	},
	{
	  "ADDRESS": "570 BURROUGHS ST SE APT B",
	  "CITY": "ATLANTA",
	  "STATE": "GA",
	  "ZIP": 30315
	},
	{
	  "ADDRESS": "6475 VESTAL HOLLOW RD",
	  "CITY": "SANTA FE",
	  "STATE": "TN",
	  "ZIP": 38482
	},
	{
	  "ADDRESS": "PO BOX 1491",
	  "CITY": "THEODORE",
	  "STATE": "AL",
	  "ZIP": 36590
	},
	{
	  "ADDRESS": "5198 BRADEN DR",
	  "CITY": "MEMPHIS",
	  "STATE": "TN",
	  "ZIP": 38127
	},
	{
	  "ADDRESS": "PO BOX 704",
	  "CITY": "COMMERCE",
	  "STATE": "GA",
	  "ZIP": 30529
	},
	{
	  "ADDRESS": "1711A E SHOTWELL ST",
	  "CITY": "BAINBRIDGE",
	  "STATE": "GA",
	  "ZIP": 39819
	},
	{
	  "ADDRESS": "2131 W HIAWATHA ST",
	  "CITY": "TAMPA",
	  "STATE": "FL",
	  "ZIP": 33604
	},
	{
	  "ADDRESS": "107 1ST ST",
	  "CITY": "BARNESVILLE",
	  "STATE": "GA",
	  "ZIP": 30204
	},
	{
	  "ADDRESS": "3029 BROOK HIGHLAND DR",
	  "CITY": "BIRMINGHAM",
	  "STATE": "AL",
	  "ZIP": 35242
	},
	{
	  "ADDRESS": "7211 COLLINS RD",
	  "CITY": "PANAMA CITY",
	  "STATE": "FL",
	  "ZIP": 32404
	},
	{
	  "ADDRESS": "891 HIGHLAND TER NE",
	  "CITY": "MARIETTA",
	  "STATE": "GA",
	  "ZIP": 30066
	},
	{
	  "ADDRESS": "5357 VILLAGE WAY",
	  "CITY": "NASHVILLE",
	  "STATE": "TN",
	  "ZIP": 37211
	},
	{
	  "ADDRESS": "7695 NW 68TH CT",
	  "CITY": "MEDLEY",
	  "STATE": "FL",
	  "ZIP": 33166
	},
	{
	  "ADDRESS": "26725 SW 134TH AVE",
	  "CITY": "HOMESTEAD",
	  "STATE": "FL",
	  "ZIP": 33032
	},
	{
	  "ADDRESS": "2020 PITTSTON FARM RD",
	  "CITY": "LITHONIA",
	  "STATE": "GA",
	  "ZIP": 30058
	},
	{
	  "ADDRESS": "2223 KELLER BEND RD",
	  "CITY": "KNOXVILLE",
	  "STATE": "TN",
	  "ZIP": 37922
	},
	{
	  "ADDRESS": "1151 HIGHWAY 51 N LOT 338",
	  "CITY": "NESBIT",
	  "STATE": "MS",
	  "ZIP": 38651
	},
	{
	  "ADDRESS": "4540 BLUEBIRD CIR",
	  "CITY": "WAYCROSS",
	  "STATE": "GA",
	  "ZIP": 31503
	},
	{
	  "ADDRESS": "PO BOX 1157",
	  "CITY": "OGLETHORPE",
	  "STATE": "GA",
	  "ZIP": 31068
	},
	{
	  "ADDRESS": "PO BOX 50146",
	  "CITY": "MOBILE",
	  "STATE": "AL",
	  "ZIP": 36605
	},
	{
	  "ADDRESS": "11521 SW 7TH TER",
	  "CITY": "MIAMI",
	  "STATE": "FL",
	  "ZIP": 33174
	},
	{
	  "ADDRESS": "1103 CRESTDALE ST",
	  "CITY": "JACKSONVILLE",
	  "STATE": "FL",
	  "ZIP": 32211
	},
	{
	  "ADDRESS": "GENERAL DELIVERY",
	  "CITY": "MORRISTOWN",
	  "STATE": "TN",
	  "ZIP": 37813
	},
	{
	  "ADDRESS": "3507 ANTON ST APT 22",
	  "CITY": "MOBILE",
	  "STATE": "AL",
	  "ZIP": 36612
	},
	{
	  "ADDRESS": "31 CHEROKEE RIDGE RD",
	  "CITY": "MURPHY",
	  "STATE": "NC",
	  "ZIP": 28906
	},
	{
	  "ADDRESS": "7418 NE 221ST ST",
	  "CITY": "MELROSE",
	  "STATE": "FL",
	  "ZIP": 32666
	},
	{
	  "ADDRESS": "5195 FRONTAGE RD NW",
	  "CITY": "CLEVELAND",
	  "STATE": "TN",
	  "ZIP": 37312
	},
	{
	  "ADDRESS": "1691 PADDLEWHEEL DR",
	  "CITY": "MARIETTA",
	  "STATE": "GA",
	  "ZIP": 30062
	}
]
}